0 COSMOS 861
1 09494U 76104A   13282.81131803 -.00000088  00000-0  94805-6 0  5204
2 09494 064.8601 193.4456 0035161 139.1015 289.1501 13.81513114866061
0 COSMOS 861
1 09494U 76104A   13283.81112233  .00000007  00000-0  68802-5 0  5219
2 09494 064.8598 190.8591 0036194 139.6495 220.7718 13.81512724866204
0 COSMOS 861
1 09494U 76104A   13283.82854625 -.00000084  00000-0  47391-5 0  5225
2 09494 064.8600 190.8088 0035085 138.7161 308.3583 13.81512928866206
0 COSMOS 861
1 09494U 76104A   13285.85224549 -.00000045  00000-0  41134-4 0  5243
2 09494 064.8597 185.5630 0034960 137.8804 293.3444 13.81512735866485
0 COSMOS 861
1 09494U 76104A   13286.86476181 -.00000029  00000-0  55642-4 0  5258
2 09494 064.8596 182.9385 0034907 137.4819 289.1328 13.81512721866620
0 COSMOS 861
1 09494U 76104A   13288.10256389 -.00000018  00000-0  66350-4 0  5260
2 09494 064.8594 179.7302 0034790 136.9932 325.3895 13.81512892866790
0 COSMOS 861
1 09494U 76104A   13289.12804069 -.00000025  00000-0  59706-4 0  5273
2 09494 064.8591 177.0720 0034726 136.5798 025.6472 13.81512961866931
0 COSMOS 861
1 09494U 76104A   13290.14140986 -.00000046  00000-0  40504-4 0  5288
2 09494 064.8590 174.4453 0034672 136.1601 025.6975 13.81513162867071
0 COSMOS 861
1 09494U 76104A   13290.61567109  .00000037  00000-0  34036-4 0  5293
2 09494 064.8605 173.2207 0035763 137.1484 223.2840 13.81513594867148
0 COSMOS 861
1 09494U 76104A   13292.08611263 -.00000065  00000-0  22199-4 0  5296
2 09494 064.8588 169.4042 0034530 135.3587 337.7886 13.81513523867342
0 COSMOS 861
1 09494U 76104A   13293.81479240 -.00000090  00000-0 -49441-6 0  5307
2 09494 064.8587 164.9230 0034424 134.6380 295.4862 13.81513781867581
0 COSMOS 861
1 09494U 76104A   13294.82913148 -.00000079  00000-0  95175-5 0  5310
2 09494 064.8586 162.2936 0034334 134.2331 300.3493 13.81513735867727
0 COSMOS 861
1 09494U 76104A   13295.84326042 -.00000066  00000-0  21524-4 0  5327
2 09494 064.8586 159.6647 0034270 133.8044 304.1914 13.81513621867860
